SKYSAT-C4               
1 41771U 16058B   26175.31042311  .00014912  00000+0  27912-3 0  9996
2 41771  96.9174 196.7842 0001872 139.6201 220.5190 15.48783110546579
SKYSAT-C5               
1 41772U 16058C   26175.08138987  .00006701  00000+0  20240-3 0  9990
2 41772  97.0472 215.4140 0000975 242.0219 118.0926 15.34554203544800
SKYSAT-C2               
1 41773U 16058D   26175.00769315  .00010831  00000+0  25414-3 0  9995
2 41773  97.0173 196.8461 0004127  56.1352 304.0288 15.42205016546109
SKYSAT-C3               
1 41774U 16058E   26175.03932952  .00020416  00000+0  33089-3 0  9995
2 41774  96.9009 205.6223 0001300 110.6460 249.4934 15.52799383547171
SKYSAT-C11              
1 42987U 17068A   26174.92941455  .00024303  00000+0  32295-3 0  9996
2 42987  97.4355 324.0557 0000531 115.1946 244.9365 15.58202892484299
SKYSAT-C10              
1 42988U 17068B   26175.13856235  .00007932  00000+0  23797-3 0  9998
2 42988  97.4508 312.0542 0001153 103.6982 256.4389 15.34737978483424
SKYSAT-C9               
1 42989U 17068C   26175.11925487  .00012180  00000+0  29003-3 0  9990
2 42989  97.4427 313.0357 0009564 111.4507 248.7761 15.41711307483822
SKYSAT-C8               
1 42990U 17068D   26175.09931891  .00009105  00000+0  25309-3 0  9993
2 42990  97.4524 311.8407 0001386  95.7828 264.3575 15.37092162483371
SKYSAT-C7               
1 42991U 17068E   26174.96295219  .00009182  00000+0  25543-3 0  9991
2 42991  97.4536 312.6923 0007126  87.0005 273.2054 15.37041944483414
SKYSAT-C6               
1 42992U 17068F   26175.12556420  .00006875  00000+0  21096-3 0  9990
2 42992  97.4567 312.8004 0005186 132.1780 227.9904 15.34065078483384
